{"fetched_at":"2026-07-13T07:47:56.614Z","source":"https://celestrak.org/NORAD/elements/gp.php?GROUP=planet&FORMAT=JSON","constellation":"skysat","records":[{"OBJECT_NAME":"SKYSAT-A","OBJECT_ID":"2013-066C","EPOCH":"2026-07-12T15:40:01.594272","CLASSIFICATION_TYPE":"U","MEAN_MOTION":15.13106553,"ECCENTRICITY":0.002025,"INCLINATION":97.3804,"RA_OF_ASC_NODE":242.2385,"ARG_OF_PERICENTER":222.7187,"MEAN_ANOMALY":137.2471,"EPHEMERIS_TYPE":0,"NORAD_CAT_ID":39418,"ELEMENT_SET_NO":999,"REV_AT_EPOCH":69233,"BSTAR":0.000091024,"MEAN_MOTION_DOT":0.00001555,"MEAN_MOTION_DDOT":0},{"OBJECT_NAME":"SKYSAT-B","OBJECT_ID":"2014-037D","EPOCH":"2026-07-12T21:05:41.822592","CLASSIFICATION_TYPE":"U","MEAN_MOTION":14.88088942,"ECCENTRICITY":0.0005393,"INCLINATION":98.3853,"RA_OF_ASC_NODE":154.3116,"ARG_OF_PERICENTER":179.8697,"MEAN_ANOMALY":180.252,"EPHEMERIS_TYPE":0,"NORAD_CAT_ID":40072,"ELEMENT_SET_NO":999,"REV_AT_EPOCH":64978,"BSTAR":0.000076424,"MEAN_MOTION_DOT":0.00000641,"MEAN_MOTION_DDOT":0},{"OBJECT_NAME":"SKYSAT-C1","OBJECT_ID":"2016-040C","EPOCH":"2026-07-11T15:19:14.131200","CLASSIFICATION_TYPE":"U","MEAN_MOTION":15.36708815,"ECCENTRICITY":0.0000645,"INCLINATION":96.9557,"RA_OF_ASC_NODE":223.0369,"ARG_OF_PERICENTER":355.4804,"MEAN_ANOMALY":4.6435,"EPHEMERIS_TYPE":0,"NORAD_CAT_ID":41601,"ELEMENT_SET_NO":999,"REV_AT_EPOCH":56162,"BSTAR":0.00015588995,"MEAN_MOTION_DOT":0.00005514,"MEAN_MOTION_DDOT":0},{"OBJECT_NAME":"SKYSAT-C4","OBJECT_ID":"2016-058B","EPOCH":"2026-07-12T14:11:16.089216","CLASSIFICATION_TYPE":"U","MEAN_MOTION":15.49378795,"ECCENTRICITY":0.0003375,"INCLINATION":96.9166,"RA_OF_ASC_NODE":214.3113,"ARG_OF_PERICENTER":121.6663,"MEAN_ANOMALY":238.4919,"EPHEMERIS_TYPE":0,"NORAD_CAT_ID":41771,"ELEMENT_SET_NO":999,"REV_AT_EPOCH":54940,"BSTAR":0.00021392,"MEAN_MOTION_DOT":0.00011647,"MEAN_MOTION_DDOT":0},{"OBJECT_NAME":"SKYSAT-C5","OBJECT_ID":"2016-058C","EPOCH":"2026-07-12T16:00:08.750880","CLASSIFICATION_TYPE":"U","MEAN_MOTION":15.33697335,"ECCENTRICITY":0.0002262,"INCLINATION":97.0459,"RA_OF_ASC_NODE":233.1668,"ARG_OF_PERICENTER":167.5326,"MEAN_ANOMALY":192.5974,"EPHEMERIS_TYPE":0,"NORAD_CAT_ID":41772,"ELEMENT_SET_NO":999,"REV_AT_EPOCH":54765,"BSTAR":0.00014077,"MEAN_MOTION_DOT":0.00004512,"MEAN_MOTION_DDOT":0},{"OBJECT_NAME":"SKYSAT-C2","OBJECT_ID":"2016-058D","EPOCH":"2026-07-12T13:29:11.076000","CLASSIFICATION_TYPE":"U","MEAN_MOTION":15.42640053,"ECCENTRICITY":0.0001849,"INCLINATION":97.016,"RA_OF_ASC_NODE":214.7089,"ARG_OF_PERICENTER":5.3443,"MEAN_ANOMALY":354.7825,"EPHEMERIS_TYPE":0,"NORAD_CAT_ID":41773,"ELEMENT_SET_NO":999,"REV_AT_EPOCH":54896,"BSTAR":0.00018376,"MEAN_MOTION_DOT":0.0000792,"MEAN_MOTION_DDOT":0},{"OBJECT_NAME":"SKYSAT-C3","OBJECT_ID":"2016-058E","EPOCH":"2026-07-12T15:47:28.423104","CLASSIFICATION_TYPE":"U","MEAN_MOTION":15.53626037,"ECCENTRICITY":0.0002414,"INCLINATION":96.8992,"RA_OF_ASC_NODE":223.5415,"ARG_OF_PERICENTER":136.6705,"MEAN_ANOMALY":223.474,"EPHEMERIS_TYPE":0,"NORAD_CAT_ID":41774,"ELEMENT_SET_NO":999,"REV_AT_EPOCH":55006,"BSTAR":0.00024693,"MEAN_MOTION_DOT":0.00015667,"MEAN_MOTION_DDOT":0},{"OBJECT_NAME":"SKYSAT-C11","OBJECT_ID":"2017-068A","EPOCH":"2026-07-12T10:02:00.916224","CLASSIFICATION_TYPE":"U","MEAN_MOTION":15.59216138,"ECCENTRICITY":0.00009656,"INCLINATION":97.4366,"RA_OF_ASC_NODE":343.3758,"ARG_OF_PERICENTER":162.5128,"MEAN_ANOMALY":197.6162,"EPHEMERIS_TYPE":0,"NORAD_CAT_ID":42987,"ELEMENT_SET_NO":999,"REV_AT_EPOCH":48717,"BSTAR":0.00022940119,"MEAN_MOTION_DOT":0.00017889,"MEAN_MOTION_DDOT":0},{"OBJECT_NAME":"SKYSAT-C10","OBJECT_ID":"2017-068B","EPOCH":"2026-07-12T20:22:06.409920","CLASSIFICATION_TYPE":"U","MEAN_MOTION":15.35088238,"ECCENTRICITY":0.0001409,"INCLINATION":97.4529,"RA_OF_ASC_NODE":330.9574,"ARG_OF_PERICENTER":109.4915,"MEAN_ANOMALY":250.648,"EPHEMERIS_TYPE":0,"NORAD_CAT_ID":42988,"ELEMENT_SET_NO":999,"REV_AT_EPOCH":48629,"BSTAR":0.00022282,"MEAN_MOTION_DOT":0.00007505,"MEAN_MOTION_DDOT":0},{"OBJECT_NAME":"SKYSAT-C9","OBJECT_ID":"2017-068C","EPOCH":"2026-07-12T14:44:29.059008","CLASSIFICATION_TYPE":"U","MEAN_MOTION":15.42174934,"ECCENTRICITY":0.0008857,"INCLINATION":97.4448,"RA_OF_ASC_NODE":331.9015,"ARG_OF_PERICENTER":53.0107,"MEAN_ANOMALY":307.1949,"EPHEMERIS_TYPE":0,"NORAD_CAT_ID":42989,"ELEMENT_SET_NO":999,"REV_AT_EPOCH":48667,"BSTAR":0.00020809,"MEAN_MOTION_DOT":0.00008845,"MEAN_MOTION_DDOT":0},{"OBJECT_NAME":"SKYSAT-C8","OBJECT_ID":"2017-068D","EPOCH":"2026-07-12T20:17:47.018112","CLASSIFICATION_TYPE":"U","MEAN_MOTION":15.37463335,"ECCENTRICITY":0.0001224,"INCLINATION":97.4548,"RA_OF_ASC_NODE":330.8531,"ARG_OF_PERICENTER":101.868,"MEAN_ANOMALY":258.2702,"EPHEMERIS_TYPE":0,"NORAD_CAT_ID":42990,"ELEMENT_SET_NO":999,"REV_AT_EPOCH":48625,"BSTAR":0.00019785,"MEAN_MOTION_DOT":0.00007184,"MEAN_MOTION_DDOT":0},{"OBJECT_NAME":"SKYSAT-C7","OBJECT_ID":"2017-068E","EPOCH":"2026-07-12T04:32:29.236128","CLASSIFICATION_TYPE":"U","MEAN_MOTION":15.37404124,"ECCENTRICITY":0.0005961,"INCLINATION":97.4554,"RA_OF_ASC_NODE":331.1783,"ARG_OF_PERICENTER":31.4631,"MEAN_ANOMALY":328.6968,"EPHEMERIS_TYPE":0,"NORAD_CAT_ID":42991,"ELEMENT_SET_NO":999,"REV_AT_EPOCH":48621,"BSTAR":0.00016759645,"MEAN_MOTION_DOT":0.00006063,"MEAN_MOTION_DDOT":0},{"OBJECT_NAME":"SKYSAT-C6","OBJECT_ID":"2017-068F","EPOCH":"2026-07-12T20:16:42.758976","CLASSIFICATION_TYPE":"U","MEAN_MOTION":15.34145523,"ECCENTRICITY":0.0005134,"INCLINATION":97.4595,"RA_OF_ASC_NODE":331.7075,"ARG_OF_PERICENTER":94.9453,"MEAN_ANOMALY":265.2376,"EPHEMERIS_TYPE":0,"NORAD_CAT_ID":42992,"ELEMENT_SET_NO":999,"REV_AT_EPOCH":48625,"BSTAR":0.00018576,"MEAN_MOTION_DOT":0.00006059,"MEAN_MOTION_DDOT":0},{"OBJECT_NAME":"SKYSAT-C12","OBJECT_ID":"2018-099AR","EPOCH":"2026-07-12T20:45:26.652384","CLASSIFICATION_TYPE":"U","MEAN_MOTION":15.49735148,"ECCENTRICITY":0.0005503,"INCLINATION":96.9255,"RA_OF_ASC_NODE":216.0812,"ARG_OF_PERICENTER":75.3427,"MEAN_ANOMALY":284.8435,"EPHEMERIS_TYPE":0,"NORAD_CAT_ID":43797,"ELEMENT_SET_NO":999,"REV_AT_EPOCH":42583,"BSTAR":0.00024927,"MEAN_MOTION_DOT":0.00013766,"MEAN_MOTION_DDOT":0}]}
